$$SOE
2461295.500000000, A.D. 2026-Sep-12 00:00:00.0000, 1.773872091645867E+08, 1.979483431361870E+08, 4.904366590456991E+07,
2461302.500000000, A.D. 2026-Sep-19 00:00:00.0000, 1.699263909175541E+08, 2.107927448103505E+08, 5.274853462356183E+07,
2461309.500000000, A.D. 2026-Sep-26 00:00:00.0000, 1.620723026895628E+08, 2.231498361439907E+08, 5.633146920534471E+07,
2461316.500000000, A.D. 2026-Oct-03 00:00:00.0000, 1.538652053147393E+08, 2.350214197019845E+08, 5.979185183304435E+07,
2461323.500000000, A.D. 2026-Oct-10 00:00:00.0000, 1.453425487122799E+08, 2.464115335530105E+08, 6.312975117167749E+07,
2461330.500000000, A.D. 2026-Oct-17 00:00:00.0000, 1.365390380261796E+08, 2.573260225569489E+08, 6.634580373068088E+07,
2461337.500000000, A.D. 2026-Oct-24 00:00:00.0000, 1.274867374763388E+08, 2.677721675026518E+08, 6.944110996932170E+07,
2461344.500000000, A.D. 2026-Oct-31 00:00:00.0000, 1.182151994750884E+08, 2.777583677073926E+08, 7.241714430003969E+07,
2461351.500000000, A.D. 2026-Nov-07 00:00:00.0000, 1.087516095146409E+08, 2.872938720225731E+08, 7.527567783953734E+07,
2461358.500000000, A.D. 2026-Nov-14 00:00:00.0000, 9.912093950523303E+07, 2.963885537181674E+08, 7.801871269421132E+07,
2461365.500000000, A.D. 2026-Nov-21 00:00:00.0000, 8.934610214205131E+07, 3.050527245685208E+08, 8.064842669321704E+07,
2461372.500000000, A.D. 2026-Nov-28 00:00:00.0000, 7.944810121769965E+07, 3.132969800513623E+08, 8.316712713626599E+07,
2461379.500000000, A.D. 2026-Dec-05 00:00:00.0000, 6.944617862901337E+07, 3.211320703601324E+08, 8.557721198157534E+07,
2461386.500000000, A.D. 2026-Dec-12 00:00:00.0000, 5.935795633378266E+07, 3.285687961747190E+08, 8.788113763183720E+07,
2461393.500000000, A.D. 2026-Dec-19 00:00:00.0000, 4.919957018192320E+07, 3.356179255088878E+08, 9.008139252184007E+07,
2461400.500000000, A.D. 2026-Dec-26 00:00:00.0000, 3.898579483189037E+07, 3.422901275506701E+08, 9.218047559500226E+07,
2461407.500000000, A.D. 2027-Jan-02 00:00:00.0000, 2.873015978049883E+07, 3.485959205270289E+08, 9.418087888089950E+07,
2461414.500000000, A.D. 2027-Jan-09 00:00:00.0000, 1.844505665866533E+07, 3.545456312311485E+08, 9.608507351650468E+07,
2461421.500000000, A.D. 2027-Jan-16 00:00:00.0000, 8.141838059307538E+06, 3.601493641929497E+08, 9.789549865040617E+07,
2461428.500000000, A.D. 2027-Jan-23 00:00:00.0000, -2.169091695939155E+06, 3.654169787362499E+08, 9.961455274490103E+07,
2461435.500000000, A.D. 2027-Jan-30 00:00:00.0000, -1.247819322197063E+07, 3.703580724284645E+08, 1.012445868482544E+08,
2461442.500000000, A.D. 2027-Feb-06 00:00:00.0000, -2.277671525658944E+07, 3.749819700501887E+08, 1.027878994816399E+08,
2461449.500000000, A.D. 2027-Feb-13 00:00:00.0000, -3.305662432267389E+07, 3.792977182926084E+08, 1.042467329926870E+08,
2461456.500000000, A.D. 2027-Feb-20 00:00:00.0000, -4.331054272079670E+07, 3.833140845476263E+08, 1.056232712829145E+08,
2461463.500000000, A.D. 2027-Feb-27 00:00:00.0000, -5.353169296148636E+07, 3.870395558701454E+08, 1.069196383107167E+08,
2461470.500000000, A.D. 2027-Mar-06 00:00:00.0000, -6.371384514911721E+07, 3.904823394547895E+08, 1.081378970792558E+08,
2461477.500000000, A.D. 2027-Mar-13 00:00:00.0000, -7.385126846824384E+07, 3.936503662015271E+08, 1.092800492820194E+08,
2461484.500000000, A.D. 2027-Mar-20 00:00:00.0000, -8.393868747966948E+07, 3.965512961400647E+08, 1.103480355214927E+08,
2461491.500000000, A.D. 2027-Mar-27 00:00:00.0000, -9.397124263413608E+07, 3.991925248383082E+08, 1.113437359376998E+08,
2461498.500000000, A.D. 2027-Apr-03 00:00:00.0000, -1.039444544411914E+08, 4.015811904812883E+08, 1.122689711416731E+08,
2461505.500000000, A.D. 2027-Apr-10 00:00:00.0000, -1.138541909017780E+08, 4.037241814270549E+08, 1.131255033820036E+08,
2461512.500000000, A.D. 2027-Apr-17 00:00:00.0000, -1.236966378804443E+08, 4.056281440493150E+08, 1.139150378850254E+08,
2461519.500000000, A.D. 2027-Apr-24 00:00:00.0000, -1.334682720626724E+08, 4.072994906623315E+08, 1.146392243099359E+08,
2461526.500000000, A.D. 2027-May-01 00:00:00.0000, -1.431658359475258E+08, 4.087444074413704E+08, 1.152996582555808E+08,
2461533.500000000, A.D. 2027-May-08 00:00:00.0000, -1.527863143416416E+08, 4.099688629959138E+08, 1.158978828209217E+08,
2461540.500000000, A.D. 2027-May-15 00:00:00.0000, -1.623269136461570E+08, 4.109786184781342E+08, 1.164353904096252E+08,
2461547.500000000, A.D. 2027-May-22 00:00:00.0000, -1.717850453126735E+08, 4.117792365789603E+08, 1.169136246897777E+08,
2461554.500000000, A.D. 2027-May-29 00:00:00.0000, -1.811583099431107E+08, 4.123760878967115E+08, 1.173339822632553E+08,
2461561.500000000, A.D. 2027-Jun-05 00:00:00.0000, -1.904444809988938E+08, 4.127743577765224E+08, 1.176978142067633E+08,
2461568.500000000, A.D. 2027-Jun-12 00:00:00.0000, -1.996414899901783E+08, 4.129790540300940E+08, 1.180064276945073E+08,
2461575.500000000, A.D. 2027-Jun-19 00:00:00.0000, -2.087474133512856E+08, 4.129950145835319E+08, 1.182610876483237E+08,
2461582.500000000, A.D. 2027-Jun-26 00:00:00.0000, -2.177604606108044E+08, 4.128269147796822E+08, 1.184630183620011E+08,
2461589.500000000, A.D. 2027-Jul-03 00:00:00.0000, -2.266789636233243E+08, 4.124792743360114E+08, 1.186134050838655E+08,
2461596.500000000, A.D. 2027-Jul-10 00:00:00.0000, -2.355013667347448E+08, 4.119564639635230E+08, 1.187133955518506E+08,
2461603.500000000, A.D. 2027-Jul-17 00:00:00.0000, -2.442262177621341E+08, 4.112627116076304E+08, 1.187641014724293E+08,
2461610.500000000, A.D. 2027-Jul-24 00:00:00.0000, -2.528521595566041E+08, 4.104021082500859E+08, 1.187665999224637E+08,
2461617.500000000, A.D. 2027-Jul-31 00:00:00.0000, -2.613779216696423E+08, 4.093786135106817E+08, 1.187219346544452E+08,
2461624.500000000, A.D. 2027-Aug-07 00:00:00.0000, -2.698023122623988E+08, 4.081960622047144E+08, 1.186311174170859E+08,
2461631.500000000, A.D. 2027-Aug-14 00:00:00.0000, -2.781242125041708E+08, 4.068581716087770E+08, 1.184951294817188E+08,
2461638.500000000, A.D. 2027-Aug-21 00:00:00.0000, -2.863425727913945E+08, 4.053685460768981E+08, 1.183149230430876E+08,
2461645.500000000, A.D. 2027-Aug-28 00:00:00.0000, -2.944564073113377E+08, 4.037306802156362E+08, 1.180914222786208E+08,
2461652.500000000, A.D. 2027-Sep-04 00:00:00.0000, -3.024647880931802E+08, 4.019479631288262E+08, 1.178255243807956E+08,
2461659.500000000, A.D. 2027-Sep-11 00:00:00.0000, -3.103668399055983E+08, 4.000236830811511E+08, 1.175181006384688E+08,
2461666.500000000, A.D. 2027-Sep-18 00:00:00.0000, -3.181617358333624E+08, 3.979610319398794E+08, 1.171699975031008E+08,
2461673.500000000, A.D. 2027-Sep-25 00:00:00.0000, -3.258486932728029E+08, 3.957631093258238E+08, 1.167820376135359E+08,
2461680.500000000, A.D. 2027-Oct-02 00:00:00.0000, -3.334269702428029E+08, 3.934329265094838E+08, 1.163550207756987E+08,
2461687.500000000, A.D. 2027-Oct-09 00:00:00.0000, -3.408958619632149E+08, 3.909734100560811E+08, 1.158897248958278E+08,
2461694.500000000, A.D. 2027-Oct-16 00:00:00.0000, -3.482546976142381E+08, 3.883874051726450E+08, 1.153869068581054E+08,
2461701.500000000, A.D. 2027-Oct-23 00:00:00.0000, -3.555028369956777E+08, 3.856776787592363E+08, 1.148473033235909E+08,
2461708.500000000, A.D. 2027-Oct-30 00:00:00.0000, -3.626396666921952E+08, 3.828469227821270E+08, 1.142716314672620E+08,
2461715.500000000, A.D. 2027-Nov-06 00:00:00.0000, -3.696645968909725E+08, 3.798977591045829E+08, 1.136605898535579E+08,
2461722.500000000, A.D. 2027-Nov-13 00:00:00.0000, -3.765770608216256E+08, 3.768327437070520E+08, 1.130148594644762E+08,
2461729.500000000, A.D. 2027-Nov-20 00:00:00.0000, -3.833765139008773E+08, 3.736543681178116E+08, 1.123351044366409E+08,
2461736.500000000, A.D. 2027-Nov-27 00:00:00.0000, -3.900624309506776E+08, 3.703650610237993E+08, 1.116219726023266E+08,
2461743.500000000, A.D. 2027-Dec-04 00:00:00.0000, -3.966343035022373E+08, 3.669671909817990E+08, 1.108760960963379E+08,
2461750.500000000, A.D. 2027-Dec-11 00:00:00.0000, -4.030916377258213E+08, 3.634630692727889E+08, 1.100980920020596E+08,
2461757.500000000, A.D. 2027-Dec-18 00:00:00.0000, -4.094339527009262E+08, 3.598549525663511E+08, 1.092885629850915E+08,
2461764.500000000, A.D. 2027-Dec-25 00:00:00.0000, -4.156607788653858E+08, 3.561450453984572E+08, 1.084480979016315E+08,
2461771.500000000, A.D. 2028-Jan-01 00:00:00.0000, -4.217716565934259E+08, 3.523355024824888E+08, 1.075772723802901E+08,
$$EOE